{
  "type": "FeatureCollection",
  "features": [
    {
      "type": "Feature",
      "properties": {
        "norad_id": 2807,
        "name": "OPS 7218 (TRANSIT 16)",
        "group": "nnss",
        "lat": -14.478807030241002,
        "lon": 174.39675016159708,
        "alt_km": 1065.3524757068399,
        "timestamp": "2025-12-03T19:33:07.244525+00:00",
        "meta_object_name": "OPS 7218 (TRANSIT 16)",
        "meta_object_id": "1967-048A",
        "meta_epoch": "2025-12-03T12:06:54.103104",
        "meta_mean_motion": 13.50719477,
        "meta_eccentricity": 0.0021476,
        "meta_inclination": 89.6735,
        "meta_ra_of_asc_node": 354.3226,
        "meta_arg_of_pericenter": 138.9624,
        "meta_mean_anomaly": 349.3026,
        "meta_ephemeris_type": 0,
        "meta_classification_type": "U",
        "meta_norad_cat_id": 2807,
        "meta_element_set_no": 999,
        "meta_rev_at_epoch": 88151,
        "meta_bstar": 0.00022718,
        "meta_mean_motion_dot": 1.57e-06,
        "meta_mean_motion_ddot": 0,
        "tle_line1": "1 02807U 67048A   25337.50479286  .00000157  00000+0  22718-3 0  9998",
        "tle_line2": "2 02807  89.6735 354.3226 0021476 138.9624 349.3026 13.50719477881519"
      },
      "geometry": {
        "type": "Point",
        "coordinates": [
          174.39675016159708,
          -14.478807030241002
        ]
      }
    },
    {
      "type": "Feature",
      "properties": {
        "norad_id": 2965,
        "name": "OPS 4947 (TRANSIT 17)",
        "group": "nnss",
        "lat": 9.40402087815652,
        "lon": -155.00818581012626,
        "alt_km": 1061.6248248777974,
        "timestamp": "2025-12-03T19:33:07.244547+00:00",
        "meta_object_name": "OPS 4947 (TRANSIT 17)",
        "meta_object_id": "1967-092A",
        "meta_epoch": "2025-12-03T09:53:28.687776",
        "meta_mean_motion": 13.53450021,
        "meta_eccentricity": 0.0045778,
        "meta_inclination": 89.2506,
        "meta_ra_of_asc_node": 25.1466,
        "meta_arg_of_pericenter": 262.5485,
        "meta_mean_anomaly": 108.3355,
        "meta_ephemeris_type": 0,
        "meta_classification_type": "U",
        "meta_norad_cat_id": 2965,
        "meta_element_set_no": 999,
        "meta_rev_at_epoch": 86971,
        "meta_bstar": 0.00024869,
        "meta_mean_motion_dot": 1.79e-06,
        "meta_mean_motion_ddot": 0,
        "tle_line1": "1 02965U 67092A   25337.41213759  .00000179  00000+0  24869-3 0  9996",
        "tle_line2": "2 02965  89.2506  25.1466 0045778 262.5485 108.3355 13.53450021869711"
      },
      "geometry": {
        "type": "Point",
        "coordinates": [
          -155.00818581012626,
          9.40402087815652
        ]
      }
    },
    {
      "type": "Feature",
      "properties": {
        "norad_id": 3133,
        "name": "OPS 7034 (TRANSIT 18)",
        "group": "nnss",
        "lat": 20.602342742767878,
        "lon": -86.39616430261404,
        "alt_km": 1120.5519200293638,
        "timestamp": "2025-12-03T19:33:07.244561+00:00",
        "meta_object_name": "OPS 7034 (TRANSIT 18)",
        "meta_object_id": "1968-012A",
        "meta_epoch": "2025-12-03T09:21:57.300192",
        "meta_mean_motion": 13.51562445,
        "meta_eccentricity": 0.0072979,
        "meta_inclination": 90.0269,
        "meta_ra_of_asc_node": 273.6128,
        "meta_arg_of_pericenter": 196.3448,
        "meta_mean_anomaly": 280.6016,
        "meta_ephemeris_type": 0,
        "meta_classification_type": "U",
        "meta_norad_cat_id": 3133,
        "meta_element_set_no": 999,
        "meta_rev_at_epoch": 56792,
        "meta_bstar": 0.00017779,
        "meta_mean_motion_dot": 1.27e-06,
        "meta_mean_motion_ddot": 0,
        "tle_line1": "1 03133U 68012A   25337.39024653  .00000127  00000+0  17779-3 0  9992",
        "tle_line2": "2 03133  90.0269 273.6128 0072979 196.3448 280.6016 13.51562445567924"
      },
      "geometry": {
        "type": "Point",
        "coordinates": [
          -86.39616430261404,
          20.602342742767878
        ]
      }
    },
    {
      "type": "Feature",
      "properties": {
        "norad_id": 4507,
        "name": "NNSS 19 (TRANSIT 19)",
        "group": "nnss",
        "lat": 1.5002405550999776,
        "lon": -125.47263700561886,
        "alt_km": 974.7613326478222,
        "timestamp": "2025-12-03T19:33:07.244572+00:00",
        "meta_object_name": "NNSS 19 (TRANSIT 19)",
        "meta_object_id": "1970-067A",
        "meta_epoch": "2025-12-03T10:39:33.759936",
        "meta_mean_motion": 13.51311161,
        "meta_eccentricity": 0.0171187,
        "meta_inclination": 90.0056,
        "meta_ra_of_asc_node": 234.5273,
        "meta_arg_of_pericenter": 320.5051,
        "meta_mean_anomaly": 38.3724,
        "meta_ephemeris_type": 0,
        "meta_classification_type": "U",
        "meta_norad_cat_id": 4507,
        "meta_element_set_no": 999,
        "meta_rev_at_epoch": 72096,
        "meta_bstar": 0.00028364,
        "meta_mean_motion_dot": 2.1e-06,
        "meta_mean_motion_ddot": 0,
        "tle_line1": "1 04507U 70067A   25337.44414074  .00000210  00000+0  28364-3 0  9992",
        "tle_line2": "2 04507  90.0056 234.5273 0171187 320.5051  38.3724 13.51311161720969"
      },
      "geometry": {
        "type": "Point",
        "coordinates": [
          -125.47263700561886,
          1.5002405550999776
        ]
      }
    },
    {
      "type": "Feature",
      "properties": {
        "norad_id": 6909,
        "name": "NNSS 20 (TRANSIT 20)",
        "group": "nnss",
        "lat": 31.186930173722978,
        "lon": 75.10064907106067,
        "alt_km": 908.8725719664053,
        "timestamp": "2025-12-03T19:33:07.244583+00:00",
        "meta_object_name": "NNSS 20 (TRANSIT 20)",
        "meta_object_id": "1973-081A",
        "meta_epoch": "2025-12-03T11:50:21.755040",
        "meta_mean_motion": 13.71427816,
        "meta_eccentricity": 0.0156481,
        "meta_inclination": 89.8557,
        "meta_ra_of_asc_node": 255.1929,
        "meta_arg_of_pericenter": 105.6968,
        "meta_mean_anomaly": 256.1519,
        "meta_ephemeris_type": 0,
        "meta_classification_type": "U",
        "meta_norad_cat_id": 6909,
        "meta_element_set_no": 999,
        "meta_rev_at_epoch": 80234,
        "meta_bstar": 0.00028959,
        "meta_mean_motion_dot": 2.96e-06,
        "meta_mean_motion_ddot": 0,
        "tle_line1": "1 06909U 73081A   25337.49330735  .00000296  00000+0  28959-3 0  9999",
        "tle_line2": "2 06909  89.8557 255.1929 0156481 105.6968 256.1519 13.71427816802347"
      },
      "geometry": {
        "type": "Point",
        "coordinates": [
          75.10064907106067,
          31.186930173722978
        ]
      }
    },
    {
      "type": "Feature",
      "properties": {
        "norad_id": 10457,
        "name": "TRANSAT",
        "group": "nnss",
        "lat": 81.12376509223634,
        "lon": 81.16754530552237,
        "alt_km": 1081.6946764521572,
        "timestamp": "2025-12-03T19:33:07.244594+00:00",
        "meta_object_name": "TRANSAT",
        "meta_object_id": "1977-106A",
        "meta_epoch": "2025-12-03T08:47:40.611264",
        "meta_mean_motion": 13.48941256,
        "meta_eccentricity": 0.0024549,
        "meta_inclination": 89.6482,
        "meta_ra_of_asc_node": 78.9288,
        "meta_arg_of_pericenter": 217.1657,
        "meta_mean_anomaly": 208.8093,
        "meta_ephemeris_type": 0,
        "meta_classification_type": "U",
        "meta_norad_cat_id": 10457,
        "meta_element_set_no": 999,
        "meta_rev_at_epoch": 36617,
        "meta_bstar": 0.00014772,
        "meta_mean_motion_dot": 1.03e-06,
        "meta_mean_motion_ddot": 0,
        "tle_line1": "1 10457U 77106A   25337.36644226  .00000103  00000+0  14772-3 0  9998",
        "tle_line2": "2 10457  89.6482  78.9288 0024549 217.1657 208.8093 13.48941256366177"
      },
      "geometry": {
        "type": "Point",
        "coordinates": [
          81.16754530552237,
          81.12376509223634
        ]
      }
    },
    {
      "type": "Feature",
      "properties": {
        "norad_id": 12458,
        "name": "NOVA 1",
        "group": "nnss",
        "lat": 86.24675375541216,
        "lon": 93.76621123809423,
        "alt_km": 1155.6912089529142,
        "timestamp": "2025-12-03T19:33:07.244604+00:00",
        "meta_object_name": "NOVA 1",
        "meta_object_id": "1981-044A",
        "meta_epoch": "2025-12-03T08:32:59.363232",
        "meta_mean_motion": 13.2327685,
        "meta_eccentricity": 0.0015599,
        "meta_inclination": 89.8522,
        "meta_ra_of_asc_node": 91.5178,
        "meta_arg_of_pericenter": 127.0923,
        "meta_mean_anomaly": 296.7011,
        "meta_ephemeris_type": 0,
        "meta_classification_type": "U",
        "meta_norad_cat_id": 12458,
        "meta_element_set_no": 999,
        "meta_rev_at_epoch": 15062,
        "meta_bstar": 0.00015558,
        "meta_mean_motion_dot": 7.5e-07,
        "meta_mean_motion_ddot": 0,
        "tle_line1": "1 12458U 81044A   25337.35624263  .00000075  00000+0  15558-3 0  9996",
        "tle_line2": "2 12458  89.8522  91.5178 0015599 127.0923 296.7011 13.23276850150627"
      },
      "geometry": {
        "type": "Point",
        "coordinates": [
          93.76621123809423,
          86.24675375541216
        ]
      }
    }
  ]
}